satname,norad_id,inclination_deg,eccentricity,mean_motion_rev_per_day,perigee_km,apogee_km,l1,l2
STARLINK-1008,44714,53.1566,0.0001435,15.3104015,471.72458393723537,473.6907763604386,1 44714U 19074B   26041.02814935  .00003699  00000+0  13353-3 0  9990,2 44714  53.1566 307.4135 0001435 106.2472 253.8687 15.31040150344635
STARLINK-1012,44718,53.1603,0.000213,15.30197179,473.76372664488736,476.6832582146635,1 44718U 19074F   26041.05871069  .00000758  00000+0  37734-4 0  9991,2 44718  53.1603 307.1518 0002130  52.2628 307.8565 15.30197179344637
STARLINK-1017,44723,53.0469,0.000321,15.21760749,498.3214792866838,502.7375831997415,1 44723U 19074L   26040.97827527  .00013132  00000+0  58513-3 0  9994,2 44723  53.0469 299.0587 0003210 106.8006 253.3342 15.21760749344742
STARLINK-1019,44724,53.0465,0.0010307,15.73120455,343.05029424908935,356.9196448771472,1 44724U 19074M   26041.58336806  .00148000  00000+0  10410-2 0  9994,2 44724  53.0465 272.2271 0010307 105.9544  25.9613 15.73120455  6003
STARLINK-1020,44725,53.0544,0.0001392,15.06388114,546.2839734657127,548.2120006461091,1 44725U 19074N   26041.21706262 -.00001091  00000+0 -54379-4 0  9996,2 44725  53.0544 329.9457 0001392  84.6609 275.4539 15.06388114344320
STARLINK-1031,44736,53.0439,0.0005578,15.79075377,329.31566648812895,336.80267693729184,1 44736U 19074Z   26041.58336806  .00132034  00000+0  71818-3 0  9997,2 44736  53.0439 257.0714 0005578 141.2951 201.5643 15.79075377  6013
STARLINK-1036,44741,53.0556,0.0006527,15.50229114,411.62199090046306,420.4911311750411,1 44741U 19074AE  26041.06717730  .00097597  00000+0  16842-2 0  9994,2 44741  53.0556 321.6648 0006527 114.7028 245.4660 15.50229114344434
STARLINK-1039,44744,53.0494,0.0007001,15.19341148,503.00973087075545,512.6514626997741,1 44744U 19074AH  26041.26869571  .00011536  00000+0  55309-3 0  9991,2 44744  53.0494 340.8944 0007001  93.9726 266.2069 15.19341148344184
STARLINK-1042,44747,53.0438,0.0003445,15.48340148,419.238852899889,423.9238588470853,1 44747U 19074AL  26040.84590302  .00024292  00000+0  45860-3 0  9994,2 44747  53.0438 228.2282 0003445 104.1004 256.0386 15.48340148345755
STARLINK-1043,44748,53.0544,0.0002767,15.51795839,409.60406501572106,413.36144058692025,1 44748U 19074AM  26040.97998403  .00030521  00000+0  50793-3 0  9996,2 44748  53.0544 327.9948 0002767  61.5034 298.6253 15.51795839344349
STARLINK-1046,44751,53.0567,0.0007745,15.41701827,435.8048848598637,446.3678618652011,1 44751U 19074AQ  26041.20281266  .00018461  00000+0  43892-3 0  9990,2 44751  53.0567 341.2489 0007745  90.0335 270.1556 15.41701827344174
STARLINK-1047,44752,53.071,0.0004855,15.31926221,466.74092275981,473.39052760596223,1 44752U 19074AR  26041.03550024  .00010086  00000+0  33397-3 0  9997,2 44752  53.0710 275.1260 0004855 119.8938 240.2545 15.31926221345101
STARLINK-1048,44753,53.0546,0.000558,15.49938708,413.11356877412345,420.69683587191594,1 44753U 19074AS  26041.00003471  .00044012  00000+0  77711-3 0  9998,2 44753  53.0546 301.9287 0005580 102.6502 208.1557 15.49938708  5728
STARLINK-1053,44758,53.0315,0.0001251,15.80477017,328.25164503502674,329.9297934103761,1 44758U 19074AX  26041.51024693  .00142069  00000+0  72448-3 0  9991,2 44758  53.0315 220.9960 0001251 239.0112 121.0786 15.80477017345896
STARLINK-1060,44765,53.0303,0.0006271,16.19028248,218.05252789748283,226.3306600200258,1 44765U 19074BE  26042.06141407  .01415688  11786-4  76689-3 0  9993,2 44765  53.0303 254.9348 0006271 261.0163 182.8337 16.19028248345445
STARLINK-1063,44768,53.1597,0.0001398,15.30170755,474.34428028173716,476.26050193549054,1 44768U 19074BH  26041.33335647  .00054926  00000+0  18546-2 0  9998,2 44768  53.1597 346.4653 0001398  86.3746 346.9947 15.30170755  5794
STARLINK-1067,44771,53.0547,0.000145,15.52055685,409.74053214181004,411.7093020977745,1 44771U 19074BL  26041.58336806  .00079302  00000+0  12876-2 0  9992,2 44771  53.0547 335.1125 0001450 101.8172  12.8569 15.52055685  5636
STARLINK-1068,44772,53.053,0.0005848,15.5745816,391.055521432917,398.97740172157773,1 44772U 19074BM  26041.40055071  .00103035  00000+0  13662-2 0  9991,2 44772  53.0530 312.8769 0005848 112.9437 247.2192 15.57458160344583
STARLINK-1112,44925,53.0402,0.0003043,15.88587915,304.20700382655014,308.27511631390917,1 44925U 20001M   26041.58336806  .00319875  00000+0  10818-2 0  9991,2 44925  53.0402  20.7359 0003043  63.8209 168.5305 15.88587915  5936
STARLINK-1114,44927,53.0517,0.0007074,15.45758443,424.33497361811897,433.96592390062324,1 44927U 20001P   26041.55926741  .00084248  00000+0  17024-2 0  9992,2 44927  53.0517  99.1163 0007074  16.1453 343.9777 15.45758443335890
STARLINK-1123,44930,53.054,0.0002382,15.06381117,545.619800406027,548.9190640303368,1 44930U 20001S   26041.45479961 -.00004948  00000+0 -31362-3 0  9995,2 44930  53.0540 108.8899 0002382 146.4631 213.6509 15.06381117335743
STARLINK-1144,44933,53.0281,0.0003432,16.18587054,221.1253055475645,225.65659433240398,1 44933U 20001V   26041.99052505  .01415120  16931-2  82226-3 0  9993,2 44933  53.0281 346.8314 0003432 131.6469 228.4862 16.18587054338792
STARLINK-1094,44941,53.16,0.0001445,15.30189699,474.2555127026653,476.2361403395307,1 44941U 20001AD  26041.31658592  .00000199  00000+0  18857-4 0  9998,2 44941  53.1600  86.7087 0001445  85.7192 274.3974 15.30189699336044
STARLINK-1122,44949,53.157,0.0001298,15.29359009,476.83737638618186,478.6171587500421,1 44949U 20001AM  26041.40760979  .00001033  00000+0  48125-4 0  9998,2 44949  53.1570  86.3268 0001298 104.1230 255.9914 15.29359009336052
STARLINK-1080,44961,53.0538,0.0007803,15.43299835,431.06088982135316,441.6956223299849,1 44961U 20001AZ  26041.31565707  .00019141  00000+0  43112-3 0  9993,2 44961  53.0538  58.5305 0007803  20.1177 340.0134 15.43299835336446
STARLINK-1090,44968,53.0567,0.0001492,15.06394286,546.1958059629378,548.2623351983993,1 44968U 20001BG  26041.35896323 -.00000157  00000+0  83623-5 0  9996,2 44968  53.0567  69.3123 0001492 108.5397 251.5755 15.06394286336299
STARLINK-1132,45044,53.1584,0.0005173,15.40000805,442.57675844426376,449.63712122441757,1 45044U 20006A   26041.58336806  .00073846  00000+0  18149-2 0  9999,2 45044  53.1584  22.1155 0005173  89.1805  26.4711 15.40000805  5883
STARLINK-1131,45047,53.1564,0.0001227,15.29352071,476.9067851634027,478.5892193429554,1 45047U 20006D   26041.23059042  .00002601  00000+0  10244-3 0  9998,2 45047  53.1564  48.4947 0001227 108.9670 251.1463 15.29352071332347
STARLINK-1134,45048,53.035,0.0008791,15.40600301,438.33883669365605,450.3341095541027,1 45048U 20006E   26041.58336806  .00075614  00000+0  18197-2 0  9991,2 45048  53.0350   6.9116 0008791  85.7213 166.1534 15.40600301  5925
STARLINK-1156,45054,53.1536,0.0001645,15.29357307,476.60456358765623,478.86014460515344,1 45054U 20006L   26041.58336806  .00000285  00000+0  22220-4 0  9994,2 45054  53.1536  46.8400 0001645  83.2290 292.5097 15.29357307  5837
STARLINK-1159,45057,53.0484,0.0005691,15.73126463,346.138874633848,353.79680356170957,1 45057U 20006P   26041.58336806  .00057469  00000+0  41200-3 0  9991,2 45057  53.0484  10.3609 0005691  44.8376 311.2011 15.73126463  5955
STARLINK-1166,45060,53.0547,0.000576,15.42206789,435.670739523317,443.52476996077985,1 45060U 20006S   26041.58336806  .00086841  00000+0  19784-2 0  9992,2 45060  53.0547  41.5026 0005760  48.2873 341.7419 15.42206789  5872
STARLINK-1169,45061,53.1557,0.0001308,15.29357259,476.8357498171199,478.6292452776788,1 45061U 20006T   26041.58336806  .00003441  00000+0  13151-3 0  9991,2 45061  53.1557  46.8742 0001308  70.3183 107.1146 15.29357259  5833
STARLINK-1171,45062,53.0486,0.0003248,15.52239449,407.98425239891367,412.39394903393986,1 45062U 20006U   26041.58336806  .00044467  00000+0  72364-3 0  9996,2 45062  53.0486  20.5401 0003248 314.6421   7.4013 15.52239449  5942
STARLINK-1133,45064,53.1614,0.000133,15.30198398,474.30835624532483,476.1313491681449,1 45064U 20006W   26041.23324399  .00002101  00000+0  83060-4 0  9999,2 45064  53.1614  25.3349 0001330 100.5998 259.5152 15.30198398332673
STARLINK-1167,45071,53.1611,0.0004068,15.29527747,474.43427038104346,480.01179130213586,1 45071U 20006AD  26041.24589997  .00021755  00000+0  75993-3 0  9996,2 45071  53.1611  25.1628 0004068   4.3905 355.7130 15.29527747332673
STARLINK-1168,45072,53.1625,0.0001576,15.2934343,476.6933351425532,478.8543182351259,1 45072U 20006AE  26041.19059938  .00001431  00000+0  61942-4 0  9997,2 45072  53.1625  25.4747 0001576  90.9637 269.1544 15.29343430332669
STARLINK-1172,45074,53.1603,0.0001855,15.30180586,474.00172917498367,476.5443442986116,1 45074U 20006AG  26041.34069861  .00000607  00000+0  32645-4 0  9994,2 45074  53.1603  24.8570 0001855  77.8417 282.2792 15.30180586332680
STARLINK-1153,45080,53.1632,0.0001509,15.29367427,476.6675638911456,478.73665613454614,1 45080U 20006AN  26041.36124717  .00001032  00000+0  48080-4 0  9998,2 45080  53.1632  24.5445 0001509  84.5321 275.5852 15.29367427332694
STARLINK-1151,45081,53.0531,0.0012562,15.54317885,395.6162870261005,412.6560701599983,1 45081U 20006AP  26041.58336806  .00120739  00000+0  17880-2 0  9995,2 45081  53.0531  11.5522 0012562  54.8355 344.2886 15.54317885  5769
STARLINK-1185,45087,53.1071,0.0002453,15.19030134,507.08111846361953,510.4598352717703,1 45087U 20006AV  26041.58336806  .00051093  00000+0  24077-2 0  9993,2 45087  53.1071   7.8253 0002453  74.1520  58.2668 15.19030134  5839
STARLINK-1183,45088,53.0996,0.0001531,15.17464614,512.4512212014943,514.5614423896895,1 45088U 20006AW  26041.58336806  .00042543  00000+0  21022-2 0  9991,2 45088  53.0996   8.0105 0001531 104.4169 166.5350 15.17464614  5581
STARLINK-1152,45096,53.0431,0.0007296,15.35023976,455.85955590681897,465.83900468702905,1 45096U 20006BE  26041.21583200  .00049284  00000+0  14305-2 0  9997,2 45096  53.0431 335.7085 0007296  97.7885 262.3945 15.35023976333361
